OBJECT_NAME,OBJECT_ID,EPOCH,MEAN_MOTION,ECCENTRICITY,INCLINATION,RA_OF_ASC_NODE,ARG_OF_PERICENTER,MEAN_ANOMALY,EPHEMERIS_TYPE,CLASSIFICATION_TYPE,NORAD_CAT_ID,ELEMENT_SET_NO,REV_AT_EPOCH,BSTAR,MEAN_MOTION_DOT,MEAN_MOTION_DDOT
STARLINK-5795,2023-042BF,2026-06-08T16:04:38.075232,15.27578040,.00017043,43.0047,237.1756,279.1071,80.9588,0,U,56039,999,17711,.38451889E-4,.796E-5,0
STARLINK-5798,2023-042BG,2026-06-07T22:54:27.984384,15.27579655,.00021714,43.0050,241.2581,281.4663,78.5945,0,U,56040,999,17700,.28383139E-4,.519E-5,0
STARLINK-5800,2023-042BH,2026-06-08T12:13:04.548288,15.27566604,.00025766,43.0001,241.0828,280.1940,79.8621,0,U,56041,999,17705,-.118094E-3,-.351E-4,0
ONEWEB-0537,2023-043A,2026-06-09T05:09:28.911744,13.16594468,.00022866,87.9099,230.3542,101.3745,258.7643,0,U,56046,999,15791,.13646056E-3,.65E-6,0
ONEWEB-0538,2023-043B,2026-06-09T05:00:21.874464,13.16594608,.00020597,87.9101,230.3578,106.5089,253.6269,0,U,56047,999,15792,-.46341689E-4,-.5E-7,0
ONEWEB-0546,2023-043C,2026-06-09T04:42:07.668576,13.16595077,.00027281,87.9103,230.3603,102.2998,257.8439,0,U,56048,999,15791,.11743091E-3,.58E-6,0
ONEWEB-0547,2023-043D,2026-06-09T07:12:00.047520,13.21825601,.00018964,87.9261,245.5429,103.5885,256.5460,0,U,56049,999,15718,.21262937E-4,.22E-6,0
ONEWEB-0548,2023-043E,2026-06-09T05:17:27.141792,13.16596092,.0002147,87.9099,230.3525,86.4100,273.7277,0,U,56050,999,15791,-.17390539E-3,-.54E-6,0
ONEWEB-0549,2023-043F,2026-06-09T07:03:31.713984,13.21825826,.00019758,87.9255,245.5511,110.8736,249.2610,0,U,56051,999,15718,.18270541E-3,.88E-6,0
ONEWEB-0550,2023-043G,2026-06-09T06:44:10.015008,13.21825810,.00019822,87.9256,245.5512,93.6765,266.4595,0,U,56052,999,15718,.15576556E-3,.77E-6,0
ONEWEB-0551,2023-043H,2026-06-09T05:53:11.380704,13.15549448,.00017803,87.8999,260.8085,110.2217,249.9104,0,U,56053,999,15535,-.87039373E-4,-.2E-6,0
ONEWEB-0552,2023-043J,2026-06-09T06:36:52.648704,13.21827926,.00018274,87.9253,245.5580,99.0100,261.1240,0,U,56054,999,15718,.19647707E-3,.94E-6,0
ONEWEB-0553,2023-043K,2026-06-09T04:51:14.438016,13.16594554,.00024445,87.9102,230.3595,97.8637,262.2772,0,U,56055,999,15792,-.37111517E-4,-.1E-7,0
ONEWEB-0554,2023-043L,2026-06-09T04:32:58.661376,13.16610604,.00021466,87.9097,230.3714,87.9929,272.1448,0,U,56056,999,15790,-.11958425E-1,-.4558E-4,0
ONEWEB-0555,2023-043M,2026-06-09T05:27:42.349536,13.16596013,.0002692,87.9103,230.3519,100.2911,259.8523,0,U,56057,999,15791,-.44659668E-4,-.4E-7,0
ONEWEB-0557,2023-043N,2026-06-09T05:48:14.015232,13.16593945,.00030085,87.9100,230.3592,79.7566,280.3904,0,U,56058,999,15791,.31781006E-4,.25E-6,0
ONEWEB-0558,2023-043P,2026-06-09T06:27:11.101536,13.21827537,.00020583,87.9256,245.5540,109.2185,250.9172,0,U,56059,999,15719,.21705062E-3,.103E-5,0
ONEWEB-0559,2023-043Q,2026-06-09T04:21:13.124160,13.21826818,.00018355,87.9256,245.5661,103.9585,256.1753,0,U,56060,999,15719,.36585757E-4,.28E-6,0
ONEWEB-0566,2023-043R,2026-06-09T06:00:33.327072,13.21827120,.00017952,87.9254,245.5504,107.1301,253.0030,0,U,56061,999,15718,.16455404E-3,.81E-6,0
ONEWEB-0568,2023-043S,2026-06-09T04:23:53.164608,13.16594150,.00023454,87.9099,230.3604,99.3584,260.7812,0,U,56062,999,15792,.34758391E-3,.146E-5,0
ONEWEB-0574,2023-043T,2026-06-09T05:50:50.835552,13.21827958,.00021494,87.9265,245.5540,94.9270,265.2109,0,U,56063,999,15722,.17715551E-3,.86E-6,0
ONEWEB-0575,2023-043U,2026-06-08T17:18:09.259200,13.16593564,.00023723,87.9100,230.4488,91.3575,268.7827,0,U,56064,999,15785,-.12696556E-3,-.36E-6,0
ONEWEB-0576,2023-043V,2026-06-09T05:36:49.951008,13.16593508,.00022296,87.9102,230.3544,94.0233,266.1153,0,U,56065,999,15791,-.15994294E-3,-.48E-6,0
ONEWEB-0577,2023-043W,2026-06-09T05:45:57.503232,13.16593275,.00024716,87.9100,230.3509,81.5011,278.6400,0,U,56066,999,15794,.57707157E-4,.35E-6,0
ONEWEB-0578,2023-043X,2026-06-09T05:31:28.148160,13.21824479,.00023641,87.9260,245.5551,100.4878,259.6523,0,U,56067,999,15718,.38169306E-4,.29E-6,0
ONEWEB-0579,2023-043Y,2026-06-09T07:08:23.426304,13.21826286,.00017297,87.9264,245.5384,98.7344,261.3985,0,U,56068,999,15720,-.20026301E-4,.5E-7,0
ONEWEB-0581,2023-043Z,2026-06-09T05:55:03.288576,13.16596046,.00022708,87.9100,230.3610,84.7022,275.4368,0,U,56069,999,15791,.45291025E-4,.3E-6,0
ONEWEB-0609,2023-043AA,2026-06-09T06:30:50.619744,13.15548898,.00019674,87.9000,260.7888,103.1397,256.9953,0,U,56070,999,15539,.53954508E-3,.216E-5,0
ONEWEB-0613,2023-043AB,2026-06-09T06:27:24.881472,13.15550008,.00016823,87.9001,260.8016,103.9985,256.1333,0,U,56071,999,15539,.43831001E-3,.178E-5,0
ONEWEB-0630,2023-043AC,2026-06-09T00:51:59.099616,13.15550356,.00017126,87.9003,260.8191,102.9051,257.2271,0,U,56072,999,15535,.3291286E-3,.137E-5,0
