STARLINK-5795           
1 56039U 23042BF  26159.66988513  .00000796  00000+0  38452-4 0  9990
2 56039  43.0047 237.1756 0001704 279.1071  80.9588 15.27578040177117
STARLINK-5798           
1 56040U 23042BG  26158.95449056  .00000519  00000+0  28383-4 0  9992
2 56040  43.0050 241.2581 0002171 281.4663  78.5945 15.27579655177008
STARLINK-5800           
1 56041U 23042BH  26159.50908042 -.00003510  00000+0 -11809-3 0  9990
2 56041  43.0001 241.0828 0002576 280.1940  79.8621 15.27566604177050
ONEWEB-0537             
1 56046U 23043A   26160.21491796  .00000065  00000+0  13646-3 0  9990
2 56046  87.9099 230.3542 0002286 101.3745 258.7643 13.16594468157918
ONEWEB-0538             
1 56047U 23043B   26160.20858651 -.00000005  00000+0 -46342-4 0  9993
2 56047  87.9101 230.3578 0002059 106.5089 253.6269 13.16594608157923
ONEWEB-0546             
1 56048U 23043C   26160.19592209  .00000058  00000+0  11743-3 0  9998
2 56048  87.9103 230.3603 0002728 102.2998 257.8439 13.16595077157915
ONEWEB-0547             
1 56049U 23043D   26160.30000055  .00000022  00000+0  21263-4 0  9995
2 56049  87.9261 245.5429 0001896 103.5885 256.5460 13.21825601157183
ONEWEB-0548             
1 56050U 23043E   26160.22045303 -.00000054  00000+0 -17391-3 0  9996
2 56050  87.9099 230.3525 0002147  86.4100 273.7277 13.16596092157913
ONEWEB-0549             
1 56051U 23043F   26160.29411706  .00000088  00000+0  18271-3 0  9991
2 56051  87.9255 245.5511 0001975 110.8736 249.2610 13.21825826157180
ONEWEB-0550             
1 56052U 23043G   26160.28067147  .00000077  00000+0  15577-3 0  9991
2 56052  87.9256 245.5512 0001982  93.6765 266.4595 13.21825810157187
ONEWEB-0551             
1 56053U 23043H   26160.24527061 -.00000020  00000+0 -87039-4 0  9997
2 56053  87.8999 260.8085 0001780 110.2217 249.9104 13.15549448155352
ONEWEB-0552             
1 56054U 23043J   26160.27560936  .00000094  00000+0  19648-3 0  9998
2 56054  87.9253 245.5580 0001827  99.0100 261.1240 13.21827926157181
ONEWEB-0553             
1 56055U 23043K   26160.20225044 -.00000001  00000+0 -37112-4 0  9997
2 56055  87.9102 230.3595 0002444  97.8637 262.2772 13.16594554157926
ONEWEB-0554             
1 56056U 23043L   26160.18956784 -.00004558  00000+0 -11958-1 0  9995
2 56056  87.9097 230.3714 0002146  87.9929 272.1448 13.16610604157909
ONEWEB-0555             
1 56057U 23043M   26160.22757349 -.00000004  00000+0 -44660-4 0  9998
2 56057  87.9103 230.3519 0002692 100.2911 259.8523 13.16596013157911
ONEWEB-0557             
1 56058U 23043N   26160.24182888  .00000025  00000+0  31781-4 0  9992
2 56058  87.9100 230.3592 0003008  79.7566 280.3904 13.16593945157911
ONEWEB-0558             
1 56059U 23043P   26160.26887849  .00000103  00000+0  21705-3 0  9995
2 56059  87.9256 245.5540 0002058 109.2185 250.9172 13.21827537157198
ONEWEB-0559             
1 56060U 23043Q   26160.18140190  .00000028  00000+0  36586-4 0  9999
2 56060  87.9256 245.5661 0001835 103.9585 256.1753 13.21826818157195
ONEWEB-0566             
1 56061U 23043R   26160.25038573  .00000081  00000+0  16455-3 0  9990
2 56061  87.9254 245.5504 0001795 107.1301 253.0030 13.21827120157187
ONEWEB-0568             
1 56062U 23043S   26160.18325422  .00000146  00000+0  34758-3 0  9993
2 56062  87.9099 230.3604 0002345  99.3584 260.7812 13.16594150157928
ONEWEB-0574             
1 56063U 23043T   26160.24364393  .00000086  00000+0  17716-3 0  9999
2 56063  87.9265 245.5540 0002149  94.9270 265.2109 13.21827958157229
ONEWEB-0575             
1 56064U 23043U   26159.72094050 -.00000036  00000+0 -12697-3 0  9991
2 56064  87.9100 230.4488 0002372  91.3575 268.7827 13.16593564157850
ONEWEB-0576             
1 56065U 23043V   26160.23391147 -.00000048  00000+0 -15994-3 0  9993
2 56065  87.9102 230.3544 0002229  94.0233 266.1153 13.16593508157916
ONEWEB-0577             
1 56066U 23043W   26160.24024888  .00000035  00000+0  57707-4 0  9993
2 56066  87.9100 230.3509 0002471  81.5011 278.6400 13.16593275157947
ONEWEB-0578             
1 56067U 23043X   26160.23018690  .00000029  00000+0  38169-4 0  9991
2 56067  87.9260 245.5551 0002364 100.4878 259.6523 13.21824479157183
ONEWEB-0579             
1 56068U 23043Y   26160.29749336  .00000005  00000+0 -20026-4 0  9994
2 56068  87.9264 245.5384 0001729  98.7344 261.3985 13.21826286157206
ONEWEB-0581             
1 56069U 23043Z   26160.24656584  .00000030  00000+0  45291-4 0  9990
2 56069  87.9100 230.3610 0002270  84.7022 275.4368 13.16596046157911
ONEWEB-0609             
1 56070U 23043AA  26160.27141921  .00000216  00000+0  53955-3 0  9990
2 56070  87.9000 260.7888 0001967 103.1397 256.9953 13.15548898155394
ONEWEB-0613             
1 56071U 23043AB  26160.26903798  .00000178  00000+0  43831-3 0  9997
2 56071  87.9001 260.8016 0001682 103.9985 256.1333 13.15550008155395
ONEWEB-0630             
1 56072U 23043AC  26160.03610069  .00000137  00000+0  32913-3 0  9993
2 56072  87.9003 260.8191 0001712 102.9051 257.2271 13.15550356155354
